TRANSPORTER-15 J        
1 66674U 25276J   25352.74818130  .00003452  00000+0  17956-3 0  9994
2 66674  97.4387  64.3803 0004984 273.0795  86.9868 15.16702866  3034
TRANSPORTER-15 K        
1 66675U 25276K   25353.47241083  .00007581  00000+0  38739-3 0  9992
2 66675  97.4401  65.0975 0005004 274.1676  85.8985 15.16945625  3146
TRANSPORTER-15 L        
1 66676U 25276L   25353.14381576  .00005205  00000+0  26863-3 0  9995
2 66676  97.4404  64.7724 0004820 273.9183  86.1499 15.16750475  3098
TRANSPORTER-15 M        
1 66677U 25276M   25353.59923131  .00009158  00000+0  46126-3 0  9999
2 66677  97.4397  65.2316 0003817 279.7196  80.3606 15.17398982  3162
TRANSPORTER-15 N        
1 66678U 25276N   25353.47315635  .00005239  00000+0  26988-3 0  9991
2 66678  97.4435  65.1051 0004843 264.5662  95.5019 15.16808782  3148
TRANSPORTER-15 P        
1 66679U 25276P   25353.47408410  .00002898  00000+0  15148-3 0  9990
2 66679  97.4376  65.0895 0004626 273.2016  86.8688 15.16659761  3143
TRANSPORTER-15 Q        
1 66680U 25276Q   25353.47292251  .00002672  00000+0  13946-3 0  9990
2 66680  97.4411  65.1026 0005033 265.8218  94.2440 15.16781824  3141
TRANSPORTER-15 R        
1 66681U 25276R   25353.60104222  .00011030  00000+0  55560-3 0  9992
2 66681  97.4348  65.2178 0004944 289.7196  70.3504 15.17339099  3162
TRANSPORTER-15 S        
1 66682U 25276S   25353.47079463  .00007346  00000+0  37415-3 0  9990
2 66682  97.4471  65.1162 0004746 254.2477 105.8233 15.17073831  3141
TRANSPORTER-15 T        
1 66683U 25276T   25353.47137269  .00004722  00000+0  24249-3 0  9996
2 66683  97.4463  65.1138 0004607 258.1451 101.9266 15.16970051  3149
TRANSPORTER-15 U        
1 66684U 25276U   25352.14983106  .00010646  00000+0  53837-3 0  9996
2 66684  97.4490  63.8272 0004421 261.2980  98.7753 15.17214477  2945
TRANSPORTER-15 V        
1 66685U 25276V   25353.59977146  .00009795  00000+0  49331-3 0  9991
2 66685  97.4431  65.2408 0003974 278.7845  81.2938 15.17380939  3167
